{
  "norad_id": 42965,
  "name": "QZS-4 (MICHIBIKI-4)",
  "history": [
    {
      "epoch": "2026-03-28T13:42:11.532384",
      "apogee_km": 38940.085384990794,
      "perigee_km": 32632.019092697217,
      "latitude_deg": 39.240931219342876,
      "longitude_deg": -28.68718623998575,
      "semi_major_axis_km": 42164.189238844,
      "eccentricity": 0.0748036,
      "inclination_deg": 40.1569,
      "raan_deg": 344.5133,
      "arg_perigee_deg": 270.3627,
      "mean_anomaly_deg": 277.2698,
      "mean_motion_rev_day": 1.00273721
    }
  ]
}