{"fetched_at":"2026-03-29T02:12:04Z","count":15717,"tles":[{"name":"QZS-4 (QZSS/PRN 195)","line1":"1 42965U 17062A   26087.57096681 -.00000334  00000+0  00000+0 0  9996","line2":"2 42965  40.1569 344.5133 0748035 270.3627 277.2698  1.00273721 30995","category":"Other"}]}